NORAD_CAT_ID,OBJECT_NAME,OBJECT_TYPE,EPOCH,MEAN_MOTION,ECCENTRICITY,INCLINATION,RA_OF_ASC_NODE,ARG_OF_PERICENTER,MEAN_ANOMALY,BSTAR,MEAN_MOTION_DOT,MEAN_MOTION_DDOT,TLE_LINE0,TLE_LINE1,TLE_LINE2,SEMIMAJOR_AXIS,PERIOD,APOGEE,PERIGEE,DECAYED
53257.0,STARLINK-4144,PAYLOAD,2023-05-21 04:54:57,15.08849113,0.0001224,53.2163,108.7237,89.0425,271.0708,0.00011653,1.568e-05,0.0,0 STARLINK-4144,1 53257U 22086R   23141.20482681  .00001568  00000-0  11653-3 0  9991,2 53257  53.2163 108.7237 0001224  89.0425 271.0708 15.08849113 46554,6917.853,95.437,540.564,538.871,0.0
53257.0,STARLINK-4144,PAYLOAD,2023-05-21 22:24:13,15.08834415,0.0001239,53.2172,105.4525,85.9944,274.119,-7.5317e-05,-1.486e-05,0.0,0 STARLINK-4144,1 53257U 22086R   23141.93348434 -.00001486  00000-0 -75317-4 0  9997,2 53257  53.2172 105.4525 0001239  85.9944 274.1190 15.08834415 46665,6917.897,95.438,540.62,538.905,0.0
53257.0,STARLINK-4144,PAYLOAD,2023-05-22 04:45:46,15.08830377,0.0001238,53.2173,104.2625,80.7163,279.3969,-0.00010083,-1.892e-05,0.0,0 STARLINK-4144,1 53257U 22086R   23142.19844924 -.00001892  00000-0 -10083-3 0  9990,2 53257  53.2173 104.2625 0001238  80.7163 279.3969 15.08830377 46528,6917.91,95.438,540.631,538.918,0.0
53257.0,STARLINK-4144,PAYLOAD,2023-05-23 01:25:46,15.08842096,0.0001169,53.217,100.3967,75.2169,284.8953,-7.3998e-05,-1.465e-05,0.0,0 STARLINK-4144,1 53257U 22086R   23143.05956510 -.00001465  00000-0 -73998-4 0  9992,2 53257  53.2170 100.3967 0001169  75.2169 284.8953 15.08842096 46658,6917.874,95.437,540.548,538.93,0.0
53257.0,STARLINK-4144,PAYLOAD,2023-05-23 06:11:55,15.08845654,0.0001343,53.2174,99.5063,105.8045,254.3096,1.4435e-05,-5.8e-07,0.0,0 STARLINK-4144,1 53257U 22086R   23143.25827975 -.00000058  00000-0  14435-4 0  9993,2 53257  53.2174  99.5063 0001343 105.8045 254.3096 15.08845654 46681,6917.863,95.437,540.657,538.799,0.0
53257.0,STARLINK-4144,PAYLOAD,2023-05-24 02:51:56,15.08836464,0.0001322,53.2177,95.6384,80.585,279.5292,0.00020436,2.966e-05,0.0,0 STARLINK-4144,1 53257U 22086R   23144.11940232  .00002966  00000-0  20436-3 0  9997,2 53257  53.2177  95.6384 0001322  80.5850 279.5292 15.08836464 46818,6917.891,95.438,540.671,538.842,0.0
53257.0,STARLINK-4144,PAYLOAD,2023-05-24 06:02:42,15.08841218,0.0001377,53.2179,95.0423,81.1387,278.9761,0.0002442,3.601e-05,0.0,0 STARLINK-4144,1 53257U 22086R   23144.25187937  .00003601  00000-0  24420-3 0  9991,2 53257  53.2179  95.0423 0001377  81.1387 278.9761 15.08841218 47010,6917.877,95.437,540.694,538.789,0.0
53257.0,STARLINK-4144,PAYLOAD,2023-05-25 17:01:11,15.08843142,0.0001272,53.2172,88.5026,88.7043,271.4094,3.3423e-05,2.44e-06,0.0,0 STARLINK-4144,1 53257U 22086R   23145.70916514  .00000244  00000-0  33423-4 0  9997,2 53257  53.2172  88.5026 0001272  88.7043 271.4094 15.08843142 47054,6917.871,95.437,540.616,538.856,0.0
53257.0,STARLINK-4144,PAYLOAD,2023-05-25 20:11:58,15.0884603,0.0001273,53.2177,87.9086,85.2518,274.8619,-9.5525e-06,-4.4e-06,0.0,0 STARLINK-4144,1 53257U 22086R   23145.84164511 -.00000440  00000-0 -95525-5 0  9996,2 53257  53.2177  87.9086 0001273  85.2518 274.8619 15.08846030 47259,6917.862,95.437,540.608,538.846,0.0
53257.0,STARLINK-4144,PAYLOAD,2023-05-26 05:44:16,15.08851029,0.0001289,53.2175,86.1244,85.9274,274.1865,4.0439e-05,3.56e-06,0.0,0 STARLINK-4144,1 53257U 22086R   23146.23907877  .00000356  00000-0  40439-4 0  9997,2 53257  53.2175  86.1244 0001289  85.9274 274.1865 15.08851029 47314,6917.847,95.437,540.603,538.82,0.0
53257.0,STARLINK-4144,PAYLOAD,2023-05-27 02:24:17,15.08840631,0.0001385,53.2167,82.258,92.6249,267.4901,1.5658e-05,-3.9e-07,0.0,0 STARLINK-4144,1 53257U 22086R   23147.10020578 -.00000039  00000-0  15658-4 0  9992,2 53257  53.2167  82.2580 0001385  92.6249 267.4901 15.08840631 47266,6917.878,95.438,540.702,538.785,0.0
53257.0,STARLINK-4144,PAYLOAD,2023-05-27 19:53:32,15.0883683,0.0001197,53.2175,78.9891,93.9527,266.1602,-6.3976e-06,-3.9e-06,0.0,0 STARLINK-4144,1 53257U 22086R   23147.82885028 -.00000390  00000-0 -63976-5 0  9998,2 53257  53.2175  78.9891 0001197  93.9527 266.1602 15.08836830 47558,6917.89,95.438,540.583,538.927,0.0
53257.0,STARLINK-4144,PAYLOAD,2023-05-28 02:15:04,15.08840168,0.0001195,53.2175,77.799,95.9638,264.1491,2.4464e-05,1.02e-06,0.0,0 STARLINK-4144,1 53257U 22086R   23148.09380737  .00000102  00000-0  24464-4 0  9992,2 53257  53.2175  77.7990 0001195  95.9638 264.1491 15.08840168 47595,6917.88,95.438,540.572,538.918,0.0
53257.0,STARLINK-4144,PAYLOAD,2023-05-29 03:41:14,15.08846264,0.0001202,53.2181,73.0418,93.9331,266.1798,0.00012489,1.701e-05,0.0,0 STARLINK-4144,1 53257U 22086R   23149.15364128  .00001701  00000-0  12489-3 0  9995,2 53257  53.2181  73.0418 0001202  93.9331 266.1798 15.08846264 47576,6917.861,95.437,540.558,538.895,0.0
53257.0,STARLINK-4144,PAYLOAD,2023-05-29 19:35:07,15.08833453,0.0001272,53.2188,70.0694,99.346,260.7676,1.1984e-05,-9.7e-07,0.0,0 STARLINK-4144,1 53257U 22086R   23149.81605509 -.00000097  00000-0  11984-4 0  9997,2 53257  53.2188  70.0694 0001272  99.3460 260.7676 15.08833453 47858,6917.9,95.438,540.645,538.885,0.0
53257.0,STARLINK-4144,PAYLOAD,2023-05-30 01:56:39,15.08832384,0.000115,53.2174,68.8785,95.7597,264.3526,-8.9321e-07,-3.02e-06,0.0,0 STARLINK-4144,1 53257U 22086R   23150.08101716 -.00000302  00000-0 -89321-6 0  9991,2 53257  53.2174  68.8785 0001150  95.7597 264.3526 15.08832384 47716,6917.904,95.438,540.564,538.973,0.0
53257.0,STARLINK-4144,PAYLOAD,2023-05-30 03:32:03,15.08831223,0.0001118,53.2175,68.5812,95.1102,265.0017,-1.0667e-05,-4.57e-06,0.0,0 STARLINK-4144,1 53257U 22086R   23150.14725852 -.00000457  00000-0 -10667-4 0  9997,2 53257  53.2175  68.5812 0001118  95.1102 265.0017 15.08831223 47900,6917.907,95.438,540.546,538.999,0.0
53257.0,STARLINK-4144,PAYLOAD,2023-05-30 22:36:39,15.08847761,0.0001059,53.2183,65.0129,88.1243,271.9871,3.9457e-05,3.4e-06,0.0,0 STARLINK-4144,1 53257U 22086R   23150.94212831  .00000340  00000-0  39457-4 0  9990,2 53257  53.2183  65.0129 0001059  88.1243 271.9871 15.08847761 48026,6917.857,95.437,540.454,538.989,0.0
53257.0,STARLINK-4144,PAYLOAD,2023-05-31 01:47:25,15.08851965,0.0001187,53.218,64.4184,104.7716,255.3408,8.9676e-05,1.14e-05,0.0,0 STARLINK-4144,1 53257U 22086R   23151.07460405  .00001140  00000-0  89676-4 0  9994,2 53257  53.2180  64.4184 0001187 104.7716 255.3408 15.08851965 47863,6917.844,95.437,540.53,538.888,0.0
53257.0,STARLINK-4144,PAYLOAD,2023-05-31 03:22:48,15.08855927,0.0001063,53.2179,64.1206,90.4844,269.627,0.0001236,1.681e-05,0.0,0 STARLINK-4144,1 53257U 22086R   23151.14084127  .00001681  00000-0  12360-3 0  9990,2 53257  53.2179  64.1206 0001063  90.4844 269.6270 15.08855927 48058,6917.832,95.437,540.432,538.961,0.0
53257.0,STARLINK-4144,PAYLOAD,2023-05-31 20:52:04,15.08837318,0.0001124,53.2173,60.8503,85.3443,274.7677,0.00013403,1.846e-05,0.0,0 STARLINK-4144,1 53257U 22086R   23151.86949359  .00001846  00000-0  13403-3 0  9998,2 53257  53.2173  60.8503 0001124  85.3443 274.7677 15.08837318 48165,6917.889,95.438,540.531,538.976,0.0
53257.0,STARLINK-4144,PAYLOAD,2023-06-01 01:38:13,15.08843717,0.0001238,53.2174,59.9578,86.0031,274.1102,0.00022053,3.224e-05,0.0,0 STARLINK-4144,1 53257U 22086R   23152.06821105  .00003224  00000-0  22053-3 0  9992,2 53257  53.2174  59.9578 0001238  86.0031 274.1102 15.08843717 48015,6917.869,95.437,540.59,538.878,0.0
53257.0,STARLINK-4144,PAYLOAD,2023-06-01 03:13:36,15.08846053,0.000123,53.2176,59.6599,87.7363,272.377,0.00025171,3.721e-05,0.0,0 STARLINK-4144,1 53257U 22086R   23152.13444980  .00003721  00000-0  25171-3 0  9998,2 53257  53.2176  59.6599 0001230  87.7363 272.3770 15.08846053 48203,6917.862,95.437,540.578,538.876,0.0
53257.0,STARLINK-4144,PAYLOAD,2023-06-02 03:04:23,15.08845926,0.0001412,53.218,55.1965,108.1116,252.003,3.2382e-05,2.28e-06,0.0,0 STARLINK-4144,1 53257U 22086R   23153.12804822  .00000228  00000-0  32382-4 0  9995,2 53257  53.2180  55.1965 0001412 108.1116 252.0030 15.08845926 48170,6917.862,95.437,540.704,538.75,0.0
53257.0,STARLINK-4144,PAYLOAD,2023-06-02 22:09:01,15.0883734,0.000157,53.2192,51.6272,110.7045,249.4115,-3.5745e-05,-8.57e-06,0.0,0 STARLINK-4144,1 53257U 22086R   23153.92293744 -.00000857  00000-0 -35745-4 0  9994,2 53257  53.2192  51.6272 0001570 110.7045 249.4115 15.08837340 48478,6917.889,95.438,540.84,538.667,0.0
53257.0,STARLINK-4144,PAYLOAD,2023-06-03 02:55:11,15.08836506,0.0001447,53.2194,50.7362,102.934,257.1814,-2.2414e-05,-6.45e-06,0.0,0 STARLINK-4144,1 53257U 22086R   23154.12165806 -.00000645  00000-0 -22414-4 0  9998,2 53257  53.2194  50.7362 0001447 102.9340 257.1814 15.08836506 48323,6917.891,95.438,540.757,538.755,0.0
53257.0,STARLINK-4144,PAYLOAD,2023-06-03 20:24:25,15.08842699,0.0001269,53.2183,47.4676,95.1157,264.998,2.7773e-05,1.54e-06,0.0,0 STARLINK-4144,1 53257U 22086R   23154.85029478  .00000154  00000-0  27773-4 0  9998,2 53257  53.2183  47.4676 0001269  95.1157 264.9980 15.08842699 48615,6917.872,95.437,540.615,538.859,0.0
53257.0,STARLINK-4144,PAYLOAD,2023-06-03 23:35:11,15.08848719,0.0001289,53.2181,46.8736,92.1081,268.0059,6.9886e-06,-1.77e-06,0.0,0 STARLINK-4144,1 53257U 22086R   23154.98277190 -.00000177  00000-0  69886-5 0  9996,2 53257  53.2181  46.8736 0001289  92.1081 268.0059 15.08848719 48451,6917.854,95.437,540.61,538.827,0.0
53257.0,STARLINK-4144,PAYLOAD,2023-06-04 21:50:35,15.08837943,0.0001301,53.2175,42.7107,90.24,269.8741,9.1885e-05,1.175e-05,0.0,0 STARLINK-4144,1 53257U 22086R   23155.91013779  .00001175  00000-0  91885-4 0  9992,2 53257  53.2175  42.7107 0001301  90.2400 269.8741 15.08837943 48779,6917.887,95.438,540.652,538.852,0.0
53257.0,STARLINK-4144,PAYLOAD,2023-06-05 02:36:44,15.08845642,0.0001191,53.217,41.8192,91.439,268.6738,0.00013651,1.886e-05,0.0,0 STARLINK-4144,1 53257U 22086R   23156.10885144  .00001886  00000-0  13651-3 0  9990,2 53257  53.2170  41.8192 0001191  91.4390 268.6738 15.08845642 48628,6917.863,95.437,540.552,538.904,0.0
